ATLAS CENTAUR 2         
1 00694U 63047A   26047.12384234  .00001448  00000+0  16210-3 0  9994
2 00694  30.3580 316.1599 0548103 250.2509 103.8192 14.12006028128579
THOR AGENA D R/B        
1 00733U 64002A   26047.59007336  .00000214  00000+0  93645-4 0  9994
2 00733  99.1229  59.7780 0032274 321.3871  38.5004 14.34006746235270
SL-3 R/B                
1 00877U 64053B   26047.40871749  .00000396  00000+0  10089-3 0  9997
2 00877  65.0771  33.6252 0078744 299.0025  60.3199 14.61345240263681
SL-8 R/B                
1 02802U 67045B   26047.39902670  .00000409  00000+0  12075-3 0  9999
2 02802  74.0111  27.8476 0063382  39.3757 321.1982 14.45600047 85941
SL-8 R/B                
1 03230U 68040B   26047.27912759  .00004284  00000+0  31839-3 0  9991
2 03230  74.0332 357.4329 0024910 187.9466 172.1332 15.03095844 86797
OAO 2                   
1 03597U 68110A   26047.05189042  .00000277  00000+0  79858-4 0  9994
2 03597  34.9947  26.0291 0005232  18.4976 341.5904 14.47294179 15964
ISIS 1                  
1 03669U 69009A   26047.30022738  .00000253  00000+0  16534-3 0  9993
2 03669  88.4555 157.6390 1707874 132.3166 243.5879 11.30406512346114
SERT 2                  
1 04327U 70009A   26047.50243133 -.00000009  00000+0  44315-4 0  9992
2 04327  99.2733 351.7585 0004218 211.4503 264.8062 13.58727573777014
SL-3 R/B                
1 05118U 71028B   26047.55541900  .00035806  00000+0  44965-3 0  9993
2 05118  81.2327  78.1013 0016565   9.0681 351.0867 15.59362821985371
ASTEX 1                 
1 05560U 71089A   26047.30232441  .00000545  00000+0  13870-3 0  9994
2 05560  92.7146 144.8409 0016796 149.9304 210.2870 14.50744791859202
SL-8 R/B                
1 05730U 71119B   26047.57005290  .00014767  00000+0  76589-3 0  9993
2 05730  73.8845 215.1750 0552626 186.1607 173.2567 14.37181036652455
OAO 3 (COPERNICUS)      
1 06153U 72065A   26047.48684588  .00000426  00000+0  91847-4 0  9999
2 06153  35.0061  58.1125 0006744 342.0464 180.2680 14.59978888843094
