CCSDS_OMM_VERS = 2.0
CREATION_DATE  = 
ORIGINATOR     = 

OBJECT_NAME    = ATLAS CENTAUR 2
OBJECT_ID      = 1963-047A
CENTER_NAME    = EARTH
REF_FRAME      = TEME
TIME_SYSTEM    = UTC
MEAN_ELEMENT_THEORY = SGP/SGP4

EPOCH          = 2026-02-16T02:58:19.978176
MEAN_MOTION    = 14.12006028
ECCENTRICITY   = .05481036
INCLINATION    = 30.3580
RA_OF_ASC_NODE = 316.1599
ARG_OF_PERICENTER = 250.2509
MEAN_ANOMALY   = 103.8192

EPHEMERIS_TYPE = 0
CLASSIFICATION_TYPE = U
NORAD_CAT_ID   = 694
ELEMENT_SET_NO = 999
REV_AT_EPOCH   = 12857
BSTAR          = .16210368E-3
MEAN_MOTION_DOT = .1448E-4
MEAN_MOTION_DDOT = 0

CCSDS_OMM_VERS = 2.0
CREATION_DATE  = 
ORIGINATOR     = 

OBJECT_NAME    = THOR AGENA D R/B
OBJECT_ID      = 1964-002A
CENTER_NAME    = EARTH
REF_FRAME      = TEME
TIME_SYSTEM    = UTC
MEAN_ELEMENT_THEORY = SGP/SGP4

EPOCH          = 2026-02-16T14:09:42.338304
MEAN_MOTION    = 14.34006746
ECCENTRICITY   = .00322744
INCLINATION    = 99.1229
RA_OF_ASC_NODE = 59.7780
ARG_OF_PERICENTER = 321.3871
MEAN_ANOMALY   = 38.5004

EPHEMERIS_TYPE = 0
CLASSIFICATION_TYPE = U
NORAD_CAT_ID   = 733
ELEMENT_SET_NO = 999
REV_AT_EPOCH   = 23527
BSTAR          = .93644545E-4
MEAN_MOTION_DOT = .214E-5
MEAN_MOTION_DDOT = 0

CCSDS_OMM_VERS = 2.0
CREATION_DATE  = 
ORIGINATOR     = 

OBJECT_NAME    = SL-3 R/B
OBJECT_ID      = 1964-053B
CENTER_NAME    = EARTH
REF_FRAME      = TEME
TIME_SYSTEM    = UTC
MEAN_ELEMENT_THEORY = SGP/SGP4

EPOCH          = 2026-02-16T09:48:33.191136
MEAN_MOTION    = 14.61345240
ECCENTRICITY   = .00787447
INCLINATION    = 65.0771
RA_OF_ASC_NODE = 33.6252
ARG_OF_PERICENTER = 299.0025
MEAN_ANOMALY   = 60.3199

EPHEMERIS_TYPE = 0
CLASSIFICATION_TYPE = U
NORAD_CAT_ID   = 877
ELEMENT_SET_NO = 999
REV_AT_EPOCH   = 26368
BSTAR          = .10089022E-3
MEAN_MOTION_DOT = .396E-5
MEAN_MOTION_DDOT = 0

CCSDS_OMM_VERS = 2.0
CREATION_DATE  = 
ORIGINATOR     = 

OBJECT_NAME    = SL-8 R/B
OBJECT_ID      = 1967-045B
CENTER_NAME    = EARTH
REF_FRAME      = TEME
TIME_SYSTEM    = UTC
MEAN_ELEMENT_THEORY = SGP/SGP4

EPOCH          = 2026-02-16T09:34:35.906880
MEAN_MOTION    = 14.45600047
ECCENTRICITY   = .0063382
INCLINATION    = 74.0111
RA_OF_ASC_NODE = 27.8476
ARG_OF_PERICENTER = 39.3757
MEAN_ANOMALY   = 321.1982

EPHEMERIS_TYPE = 0
CLASSIFICATION_TYPE = U
NORAD_CAT_ID   = 2802
ELEMENT_SET_NO = 999
REV_AT_EPOCH   = 8594
BSTAR          = .12075337E-3
MEAN_MOTION_DOT = .409E-5
MEAN_MOTION_DDOT = 0

CCSDS_OMM_VERS = 2.0
CREATION_DATE  = 
ORIGINATOR     = 

OBJECT_NAME    = SL-8 R/B
OBJECT_ID      = 1968-040B
CENTER_NAME    = EARTH
REF_FRAME      = TEME
TIME_SYSTEM    = UTC
MEAN_ELEMENT_THEORY = SGP/SGP4

EPOCH          = 2026-02-16T06:41:56.623776
MEAN_MOTION    = 15.03095844
ECCENTRICITY   = .002491
INCLINATION    = 74.0332
RA_OF_ASC_NODE = 357.4329
ARG_OF_PERICENTER = 187.9466
MEAN_ANOMALY   = 172.1332

EPHEMERIS_TYPE = 0
CLASSIFICATION_TYPE = U
NORAD_CAT_ID   = 3230
ELEMENT_SET_NO = 999
REV_AT_EPOCH   = 8679
BSTAR          = .31839E-3
MEAN_MOTION_DOT = .4284E-4
MEAN_MOTION_DDOT = 0

CCSDS_OMM_VERS = 2.0
CREATION_DATE  = 
ORIGINATOR     = 

OBJECT_NAME    = OAO 2
OBJECT_ID      = 1968-110A
CENTER_NAME    = EARTH
REF_FRAME      = TEME
TIME_SYSTEM    = UTC
MEAN_ELEMENT_THEORY = SGP/SGP4

EPOCH          = 2026-02-16T01:14:43.332288
MEAN_MOTION    = 14.47294179
ECCENTRICITY   = .0005232
INCLINATION    = 34.9947
RA_OF_ASC_NODE = 26.0291
ARG_OF_PERICENTER = 18.4976
MEAN_ANOMALY   = 341.5904

EPHEMERIS_TYPE = 0
CLASSIFICATION_TYPE = U
NORAD_CAT_ID   = 3597
ELEMENT_SET_NO = 999
REV_AT_EPOCH   = 1596
BSTAR          = .79858364E-4
MEAN_MOTION_DOT = .277E-5
MEAN_MOTION_DDOT = 0

CCSDS_OMM_VERS = 2.0
CREATION_DATE  = 
ORIGINATOR     = 

OBJECT_NAME    = ISIS 1
OBJECT_ID      = 1969-009A
CENTER_NAME    = EARTH
REF_FRAME      = TEME
TIME_SYSTEM    = UTC
MEAN_ELEMENT_THEORY = SGP/SGP4

EPOCH          = 2026-02-16T07:12:19.645632
MEAN_MOTION    = 11.30406512
ECCENTRICITY   = .1707874
INCLINATION    = 88.4555
RA_OF_ASC_NODE = 157.6390
ARG_OF_PERICENTER = 132.3166
MEAN_ANOMALY   = 243.5879

EPHEMERIS_TYPE = 0
CLASSIFICATION_TYPE = U
NORAD_CAT_ID   = 3669
ELEMENT_SET_NO = 999
REV_AT_EPOCH   = 34611
BSTAR          = .16534E-3
MEAN_MOTION_DOT = .253E-5
MEAN_MOTION_DDOT = 0

CCSDS_OMM_VERS = 2.0
CREATION_DATE  = 
ORIGINATOR     = 

OBJECT_NAME    = SERT 2
OBJECT_ID      = 1970-009A
CENTER_NAME    = EARTH
REF_FRAME      = TEME
TIME_SYSTEM    = UTC
MEAN_ELEMENT_THEORY = SGP/SGP4

EPOCH          = 2026-02-16T12:03:30.066912
MEAN_MOTION    = 13.58727573
ECCENTRICITY   = .00042189
INCLINATION    = 99.2733
RA_OF_ASC_NODE = 351.7585
ARG_OF_PERICENTER = 211.4503
MEAN_ANOMALY   = 264.8062

EPHEMERIS_TYPE = 0
CLASSIFICATION_TYPE = U
NORAD_CAT_ID   = 4327
ELEMENT_SET_NO = 999
REV_AT_EPOCH   = 77701
BSTAR          = .44314688E-4
MEAN_MOTION_DOT = -.9E-7
MEAN_MOTION_DDOT = 0

CCSDS_OMM_VERS = 2.0
CREATION_DATE  = 
ORIGINATOR     = 

OBJECT_NAME    = SL-3 R/B
OBJECT_ID      = 1971-028B
CENTER_NAME    = EARTH
REF_FRAME      = TEME
TIME_SYSTEM    = UTC
MEAN_ELEMENT_THEORY = SGP/SGP4

EPOCH          = 2026-02-16T13:19:48.201600
MEAN_MOTION    = 15.59362821
ECCENTRICITY   = .00165658
INCLINATION    = 81.2327
RA_OF_ASC_NODE = 78.1013
ARG_OF_PERICENTER = 9.0681
MEAN_ANOMALY   = 351.0867

EPHEMERIS_TYPE = 0
CLASSIFICATION_TYPE = U
NORAD_CAT_ID   = 5118
ELEMENT_SET_NO = 999
REV_AT_EPOCH   = 98537
BSTAR          = .44965341E-3
MEAN_MOTION_DOT = .35806E-3
MEAN_MOTION_DDOT = 0

CCSDS_OMM_VERS = 2.0
CREATION_DATE  = 
ORIGINATOR     = 

OBJECT_NAME    = ASTEX 1
OBJECT_ID      = 1971-089A
CENTER_NAME    = EARTH
REF_FRAME      = TEME
TIME_SYSTEM    = UTC
MEAN_ELEMENT_THEORY = SGP/SGP4

EPOCH          = 2026-02-16T07:15:20.829024
MEAN_MOTION    = 14.50744791
ECCENTRICITY   = .0016796
INCLINATION    = 92.7146
RA_OF_ASC_NODE = 144.8409
ARG_OF_PERICENTER = 149.9304
MEAN_ANOMALY   = 210.2870

EPHEMERIS_TYPE = 0
CLASSIFICATION_TYPE = U
NORAD_CAT_ID   = 5560
ELEMENT_SET_NO = 999
REV_AT_EPOCH   = 85920
BSTAR          = .1387E-3
MEAN_MOTION_DOT = .545E-5
MEAN_MOTION_DDOT = 0

CCSDS_OMM_VERS = 2.0
CREATION_DATE  = 
ORIGINATOR     = 

OBJECT_NAME    = SL-8 R/B
OBJECT_ID      = 1971-119B
CENTER_NAME    = EARTH
REF_FRAME      = TEME
TIME_SYSTEM    = UTC
MEAN_ELEMENT_THEORY = SGP/SGP4

EPOCH          = 2026-02-16T13:40:52.570560
MEAN_MOTION    = 14.37181036
ECCENTRICITY   = .05526266
INCLINATION    = 73.8845
RA_OF_ASC_NODE = 215.1750
ARG_OF_PERICENTER = 186.1607
MEAN_ANOMALY   = 173.2567

EPHEMERIS_TYPE = 0
CLASSIFICATION_TYPE = U
NORAD_CAT_ID   = 5730
ELEMENT_SET_NO = 999
REV_AT_EPOCH   = 65245
BSTAR          = .76588948E-3
MEAN_MOTION_DOT = .14767E-3
MEAN_MOTION_DDOT = 0

CCSDS_OMM_VERS = 2.0
CREATION_DATE  = 
ORIGINATOR     = 

OBJECT_NAME    = OAO 3 (COPERNICUS)
OBJECT_ID      = 1972-065A
CENTER_NAME    = EARTH
REF_FRAME      = TEME
TIME_SYSTEM    = UTC
MEAN_ELEMENT_THEORY = SGP/SGP4

EPOCH          = 2026-02-16T11:41:03.484032
MEAN_MOTION    = 14.59978888
ECCENTRICITY   = .00067447
INCLINATION    = 35.0061
RA_OF_ASC_NODE = 58.1125
ARG_OF_PERICENTER = 342.0464
MEAN_ANOMALY   = 180.2680

EPHEMERIS_TYPE = 0
CLASSIFICATION_TYPE = U
NORAD_CAT_ID   = 6153
ELEMENT_SET_NO = 999
REV_AT_EPOCH   = 84309
BSTAR          = .91846708E-4
MEAN_MOTION_DOT = .426E-5
MEAN_MOTION_DDOT = 0

